ONEWEB-0589             
1 54655U 22166P   25286.27513157  .00000080  00000+0  16285-3 0  9998
2 54655  87.9168 293.2594 0001727  63.5290 296.6021 13.21790305138922
ONEWEB-0590             
1 54656U 22166Q   25286.29903585  .00000075  00000+0  15134-3 0  9995
2 54656  87.9168 293.2305 0002300  84.6137 275.5259 13.21700160138913
ONEWEB-0591             
1 54657U 22166R   25286.31137135  .00000044  00000+0  76034-4 0  9992
2 54657  87.9166 293.2518 0001874  87.0612 273.0736 13.21795985138943
ONEWEB-0592             
1 54658U 22166S   25286.23887488 -.00000024  00000+0 -89405-4 0  9993
2 54658  87.9176 293.2235 0001869  87.0905 273.0442 13.21784867138817
ONEWEB-0593             
1 54659U 22166T   25286.26227723  .00000024  00000+0  26708-4 0  9992
2 54659  87.9166 293.2516 0001682  89.9568 270.1758 13.21838031138921
ONEWEB-0594             
1 54660U 22166U   25286.28152591  .00000105  00000+0  22308-3 0  9997
2 54660  87.9170 293.2653 0001838  92.2659 267.8686 13.21768000138944
ONEWEB-0595             
1 54661U 22166V   25286.25908741 -.00000015  00000+0 -68033-4 0  9999
2 54661  87.9167 293.2442 0002053  93.0871 267.0497 13.21849433138911
ONEWEB-0596             
1 54662U 22166W   25286.30815276  .00000101  00000+0  21230-3 0  9997
2 54662  87.9169 293.2502 0001927  89.1722 270.9633 13.21808096138927
ONEWEB-0597             
1 54663U 22166X   25286.28953550  .00000162  00000+0  36231-3 0  9997
2 54663  87.9170 293.2581 0001829  87.4383 272.6960 13.21733231138922
ONEWEB-0600             
1 54664U 22166Y   25286.27190627  .00000078  00000+0  15765-3 0  9990
2 54664  87.9167 293.2527 0001715  89.9843 270.1487 13.21802437138899
ONEWEB-0601             
1 54665U 22166Z   25286.26390031  .00000054  00000+0  98009-4 0  9998
2 54665  87.9169 293.2721 0001709  81.5033 278.6295 13.21831151139087
ONEWEB-0602             
1 54666U 22166AA  25286.30310969 -.00000013  00000+0 -63910-4 0  9996
2 54666  87.9171 293.2670 0001528  95.0566 265.0742 13.21682369138939
ONEWEB-0603             
1 54667U 22166AB  25286.30977437  .00000030  00000+0  41776-4 0  9999
2 54667  87.9176 293.2008 0001769  88.8291 271.3046 13.21801685138865
ONEWEB-0604             
1 54668U 22166AC  25286.29757757  .00000032  00000+0  46036-4 0  9995
2 54668  87.9171 293.2276 0001669  88.4389 271.6936 13.21707014138829
ONEWEB-0605             
1 54669U 22166AD  25286.29113787  .00000093  00000+0  19350-3 0  9990
2 54669  87.9168 293.2582 0002003  71.4685 288.6667 13.21726836138899
ONEWEB-0606             
1 54670U 22166AE  25286.23726247 -.00000005  00000+0 -44448-4 0  9999
2 54670  87.9168 293.2793 0002030  94.4735 265.6631 13.21790696138943
ONEWEB-0607             
1 54671U 22166AF  25286.27992529  .00000125  00000+0  27225-3 0  9996
2 54671  87.9170 293.2346 0001737  87.8396 272.2937 13.21775008138924
ONEWEB-0608             
1 54672U 22166AG  25286.28632559  .00000031  00000+0  42944-4 0  9994
2 54672  87.9172 293.2170 0001700  74.5707 285.5615 13.21754430138938
ONEWEB-0610             
1 54673U 22166AH  25286.26711128  .00000060  00000+0  11342-3 0  9992
2 54673  87.9168 293.2584 0001675  71.8067 288.3249 13.21823535138839
ONEWEB-0611             
1 54674U 22166AJ  25286.26070448  .00000064  00000+0  12433-3 0  9992
2 54674  87.9166 293.2553 0001941  97.1715 262.9640 13.21844355138826
ONEWEB-0612             
1 54675U 22166AK  25286.27350898  .00000075  00000+0  15091-3 0  9999
2 54675  87.9171 293.2309 0001755  86.2505 273.8829 13.21795298138811
ONEWEB-0615             
1 54676U 22166AL  25286.25429139  .00000084  00000+0  17173-3 0  9996
2 54676  87.9168 293.2614 0001876  91.0350 269.0999 13.21868725138825
ONEWEB-0655             
1 54677U 22166AM  25286.30399239  .00000078  00000+0  15673-3 0  9996
2 54677  87.9168 293.2568 0001568  90.8351 269.2963 13.21677469138826
ONEWEB-0659             
1 54678U 22166AN  25286.32097416  .00000077  00000+0  15392-3 0  9998
2 54678  87.9167 293.2535 0002005  91.2131 268.9232 13.21760818138914
ONEWEB-0685             
1 54679U 22166AP  25286.32221113 -.00000021  00000+0 -82946-4 0  9993
2 54679  87.9168 293.2494 0001714  83.5050 276.6279 13.21829947138804
ONEWEB-0712             
1 54680U 22166AQ  25286.22189199 -.00000003  00000+0 -41476-4 0  9994
2 54680  87.8985 277.9709 0001378  98.2557 261.8730 13.16594724139569
ONEWEB-0714             
1 54681U 22166AR  25286.25266793  .00000056  00000+0  10402-3 0  9994
2 54681  87.9169 293.2570 0001674  88.2894 271.8432 13.21873544138918
ONEWEB-0532             
1 55140U 23004A   25286.31673756  .00000072  00000+0  15340-3 0  9999
2 55140  87.9105  54.9493 0001917  86.3541 273.7809 13.17649969135073
ONEWEB-0533             
1 55141U 23004B   25286.29655064  .00000233  00000+0  61191-3 0  9993
2 55141  87.8957  39.7076 0001542  98.1801 261.9502 13.12442527135671
ONEWEB-0541             
1 55142U 23004C   25286.13335570 -.00000353  00000+0 -10317-2 0  9992
2 55142  87.8821  70.2499 0001762  94.7298 265.4031 13.11417145133566
ONEWEB-0543             
1 55143U 23004D   25286.26167751  .00000131  00000+0  29913-3 0  9996
2 55143  87.9217  24.5416 0001676 108.0608 252.0707 13.18688780137159
ONEWEB-0544             
1 55144U 23004E   25286.33096412  .00000065  00000+0  13213-3 0  9992
2 55144  87.9208  24.5174 0001843 108.3259 251.8074 13.18686720137169
ONEWEB-0560             
1 55145U 23004F   25286.32436588  .00000043  00000+0  75126-4 0  9992
2 55145  87.9222  24.5003 0001915 109.1472 250.9868 13.18686828137174
ONEWEB-0565             
1 55146U 23004G   25286.31776413  .00000108  00000+0  24001-3 0  9993
2 55146  87.9211  24.5536 0002318 101.5522 258.5871 13.18684317137162
ONEWEB-0567             
1 55147U 23004H   25286.31116632  .00000034  00000+0  52880-4 0  9990
2 55147  87.9221  24.5169 0002171 105.7905 254.3466 13.18684573137162
ONEWEB-0569             
1 55148U 23004J   25286.26889194 -.00000193  00000+0 -56401-3 0  9995
2 55148  87.9058   9.2702 0002501 119.9853 240.1525 13.13469675137764
ONEWEB-0570             
1 55149U 23004K   25286.30127333  .00000116  00000+0  26134-3 0  9994
2 55149  87.9221  24.5192 0002216  90.0781 270.0605 13.18687478137154
ONEWEB-0571             
1 55150U 23004L   25286.29468725  .00000065  00000+0  13139-3 0  9991
2 55150  87.9211  24.5234 0003047 110.3628 249.7832 13.18688699137163
ONEWEB-0572             
1 55151U 23004M   25286.34709673  .00000086  00000+0  18789-3 0  9997
2 55151  87.9103  54.9522 0001918  98.1310 262.0039 13.17646865134978
ONEWEB-0573             
1 55152U 23004N   25286.28808355  .00000045  00000+0  81614-4 0  9991
2 55152  87.9214  24.5311 0002658  97.7842 262.3592 13.18686923137158
ONEWEB-0588             
1 55153U 23004P   25286.28146989  .00000070  00000+0  14586-3 0  9991
2 55153  87.9223  24.5215 0002151  93.2681 266.8697 13.18684379137150
ONEWEB-0598             
1 55154U 23004Q   25286.34020093 -.00000138  00000+0 -42473-3 0  9999
2 55154  87.8810  70.2404 0002126 109.2348 250.9010 13.11415716133542
ONEWEB-0599             
1 55155U 23004R   25286.30828230  .00000058  00000+0  11513-3 0  9995
2 55155  87.9103  54.9631 0001693 104.4257 255.7063 13.17646691134977
ONEWEB-0614             
1 55156U 23004S   25286.33512571  .00000046  00000+0  92843-4 0  9990
2 55156  87.8809  70.2511 0001711  83.9546 276.1777 13.11413694133484
ONEWEB-0616             
1 55157U 23004T   25286.27454781  .00000000  00000+0 -33724-4 0  9996
2 55157  87.9100  54.9605 0001296 135.8128 224.3107 13.17649747135181
ONEWEB-0617             
1 55158U 23004U   25286.32326131  .00000496  00000+0  13650-2 0  9992
2 55158  87.8813  70.2320 0001882  87.1652 272.9691 13.11416063133507
ONEWEB-0618             
1 55159U 23004V   25286.33336806  .01565574  00000+0  11012+0 0  9995
2 55159  86.9043 277.6642 0016459 123.7468 326.0554 15.01911236  5781
ONEWEB-0619             
1 55160U 23004W   25286.30659269  .00000046  00000+0  86592-4 0  9992
2 55160  87.9101  54.9287 0001269  86.0644 274.0632 13.17651440135089
ONEWEB-0620             
1 55161U 23004X   25286.31817490  .00000531  00000+0  14624-2 0  9990
2 55161  87.8808  70.2535 0001850  96.1302 264.0037 13.11416616133476
ONEWEB-0621             
1 55162U 23004Y   25286.34528720 -.00000403  00000+0 -11734-2 0  9998
2 55162  87.8818  70.2115 0001554  87.2679 272.8627 13.11415766133456
ONEWEB-0622             
1 55163U 23004Z   25286.12149012 -.00000488  00000+0 -14116-2 0  9998
2 55163  87.8808  70.2723 0002183  78.3121 281.8252 13.11415657133412
ONEWEB-0623             
1 55164U 23004AA  25286.30154170  .00000005  00000+0 -20616-4 0  9998
2 55164  87.9094  54.9833 0001821  73.8108 286.3224 13.17648167135078
ONEWEB-0624             
1 55165U 23004AB  25286.27681002 -.00000193  00000+0 -56785-3 0  9998
2 55165  87.8948  39.6857 0001690  90.7923 269.3400 13.12916201135674
ONEWEB-0625             
1 55166U 23004AC  25286.29140830  .00000057  00000+0  11434-3 0  9999
2 55166  87.9093  54.9814 0001537 101.9802 258.1502 13.17651226135061
ONEWEB-0626             
1 55167U 23004AD  25286.28130068  .00000073  00000+0  15471-3 0  9994
2 55167  87.9093  54.9826 0002141 106.3477 253.7890 13.17650246135066
ONEWEB-0627             
1 55168U 23004AE  25286.34543036  .00000149  00000+0  35180-3 0  9998
2 55168  87.9091  54.9708 0001880  80.5509 279.5835 13.17649598135076
ONEWEB-0628             
1 55169U 23004AF  25286.31939998  .00000367  00000+0  98432-3 0  9993
2 55169  87.8961  39.6882 0001743  76.8479 283.2844 13.12441833135650
ONEWEB-0629             
1 55170U 23004AG  25286.32094392  .00000154  00000+0  36225-3 0  9992
2 55170  87.9097  54.9717 0001376  91.2774 268.8515 13.17651154135075
ONEWEB-0631             
1 55171U 23004AH  25286.27488493  .00000094  00000+0  20564-3 0  9998
2 55171  87.9234  24.4640 0002374  98.8469 261.2932 13.18687651137130
